[{"OBJECT_NAME":"STARLINK-31577","OBJECT_ID":"2024-046C","EPOCH":"2026-03-09T22:00:01.999584","MEAN_MOTION":15.30204734,"ECCENTRICITY":0.00012761,"INCLINATION":53.1581,"RA_OF_ASC_NODE":153.9126,"ARG_OF_PERICENTER":87.0446,"MEAN_ANOMALY":126.6038,"EPHEMERIS_TYPE":0,"CLASSIFICATION_TYPE":"U","NORAD_CAT_ID":59203,"ELEMENT_SET_NO":999,"REV_AT_EPOCH":586,"BSTAR":-0.00059801654,"MEAN_MOTION_DOT":-0.00018031,"MEAN_MOTION_DDOT":0},{"OBJECT_NAME":"TEVEL2-1","OBJECT_ID":"2025-052H","EPOCH":"2026-03-09T15:32:51.927072","MEAN_MOTION":15.30341923,"ECCENTRICITY":0.0004767,"INCLINATION":97.3991,"RA_OF_ASC_NODE":324.7682,"ARG_OF_PERICENTER":104.8919,"MEAN_ANOMALY":255.2849,"EPHEMERIS_TYPE":0,"CLASSIFICATION_TYPE":"U","NORAD_CAT_ID":63217,"ELEMENT_SET_NO":999,"REV_AT_EPOCH":5485,"BSTAR":0.000706,"MEAN_MOTION_DOT":0.00020683,"MEAN_MOTION_DDOT":0}]
